PROBA-1                 
1 26958U 01049B   26198.60212314  .00000929  00000+0  63569-4 0  9991
2 26958  97.9599 208.1991 0055571  21.8262 338.5314 15.07620855348207
CUTE-1 (CO-55)          
1 27844U 03031E   26198.45437378  .00000130  00000+0  74903-4 0  9999
2 27844  98.6744 206.6332 0010862  96.8604 263.3811 14.24352364195987
CUBESAT XI-IV (CO-57)   
1 27848U 03031J   26198.45804686  .00000106  00000+0  65800-4 0  9992
2 27848  98.6776 206.3252 0010617 113.4163 246.8133 14.23635260195686
APRIZESAT 4             
1 35684U 09041D   26198.46612409  .00000340  00000+0  47360-4 0  9998
2 35684  98.1403 274.3888 0042383 221.9877 137.8085 14.83915547915856
APRIZESAT 3             
1 35686U 09041F   26198.39240434  .00000514  00000+0  49783-4 0  9991
2 35686  98.2104 353.0707 0060734 328.5965  31.1633 14.96314161920898
PROBA-2                 
1 36037U 09059B   26198.50162219  .00000053  00000+0  22895-4 0  9991
2 36037  98.2461  21.4357 0013173 181.5534 178.5625 14.54874149885939
APRIZESAT 5             
1 37792U 11044E   26198.27307244  .00000370  00000+0  54221-4 0  9990
2 37792  98.2448 132.1678 0050683 265.8178  93.7240 14.81129364803243
APRIZESAT 6             
1 37793U 11044F   26198.57717800  .00000328  00000+0  53815-4 0  9998
2 37793  98.2335 109.6946 0042863 350.6351 130.9243 14.76958656801639
PROBA-V                 
1 39159U 13021A   26198.41179997  .00000004  00000+0  19662-4 0  9998
2 39159  98.3607 175.5296 0005171  54.7902 305.3761 14.23603582685411
APRIZESAT 7             
1 39416U 13066A   26198.61009282  .00000661  00000+0  70616-4 0  9999
2 39416  97.7723 151.3962 0037291 109.6248 250.9002 14.91622016685761
APRIZESAT 8             
1 39425U 13066K   26198.34135456  .00000356  00000+0  44567-4 0  9999
2 39425  97.8230 145.3917 0045680 184.7762 175.3025 14.87698086684156
BUGSAT-1 (TITA)         
1 40014U 14033E   26198.60132110  .00003460  00000+0  18277-3 0  9990
2 40014  98.0433 292.9358 0028916  77.9200 282.5269 15.15897442660447
SAUDISAT 4              
1 40016U 14033G   26198.34882687  .00000220  00000+0  35798-4 0  9993
2 40016  97.7621 343.4471 0044070 336.9897  22.9340 14.79576785650539
APRIZESAT 9             
1 40018U 14033J   26198.34334027  .00000296  00000+0  50835-4 0  9997
2 40018  97.9097 330.8108 0067487 103.1795 257.6955 14.74254170648009
APRIZESAT 10            
1 40019U 14033K   26198.60279540  .00000280  00000+0  51810-4 0  9992
2 40019  97.9685 324.8896 0078926 175.6715 184.5192 14.70912482646727
TECHDEMOSAT-1 (TDS-1)   
1 40076U 14037H   26198.43803913  .00003484  00000+0  19784-3 0  9999
2 40076  98.3829 193.6612 0007131 151.6707 208.4911 15.13697375652808
TECHNOSAT               
1 42829U 17042E   26198.36696889  .00001444  00000+0  10531-3 0  9995
2 42829  97.4321 354.8846 0017221 356.4575   3.6528 15.05118204491240
FLYING LAPTOP           
1 42831U 17042G   26198.64611184  .00002033  00000+0  16182-3 0  9997
2 42831  97.4818 353.0350 0019599  24.7102 335.5057 15.01322777491024
HAWK-A                  
1 43765U 18099H   26198.07570926  .00003796  00000+0  15258-3 0  9992
2 43765  97.3893 249.9255 0034934 177.4083 182.7343 15.24979113417658
HAWK-B                  
1 43794U 18099AN  26198.59303627  .00002916  00000+0  12492-3 0  9993
2 43794  97.3942 249.7872 0031628 193.5822 166.4568 15.23130659417667
HAWK-C                  
1 43799U 18099AT  26198.57317841  .00004454  00000+0  15946-3 0  9995
2 43799  97.3870 251.4802 0040543 175.4293 184.7326 15.28512583418551
SALSAT                  
1 46495U 20068K   26197.96833821  .00003909  00000+0  13663-3 0  9991
2 46495  97.8858 202.8562 0009384 186.4299 173.6821 15.30186484319914
HAWK-2C                 
1 47502U 21006CT  26198.40303766  .00003477  00000+0  10461-3 0  9997
2 47502  97.2261 242.1144 0008679  94.6147 265.6088 15.35005067304134
HAWK-2A                 
1 47505U 21006CW  26198.20966682  .00004178  00000+0  12515-3 0  9991
2 47505  97.2301 242.6200 0008225  98.5451 261.6725 15.35025818304105
HAWK-2B                 
1 47508U 21006CZ  26198.52893607  .00003810  00000+0  11384-3 0  9990
2 47508  97.2173 241.2174 0008768  95.9169 264.3074 15.35155089304155
HAWK-3B                 
1 48931U 21059BE  26198.07364355  .00028474  00000+0  21904-3 0  9994
2 48931  97.6630  37.6634 0004663 191.2793 168.8366 15.71981880282545
HAWK-3C                 
1 48948U 21059BX  26198.07332559  .00027820  00000+0  21401-3 0  9999
2 48948  97.6747  43.3996 0004991 191.7605 168.3541 15.71985132282542
HAWK-3A                 
1 48957U 21059CG  26198.07321316  .00027525  00000+0  21178-3 0  9991
2 48957  97.6690  40.5803 0004843 193.9667 166.1462 15.71983553282546
HAWK-5C                 
1 52754U 22057Y   26198.34914872  .00010534  00000+0  17449-3 0  9993
2 52754  97.6624 359.9892 0002589 336.8816  23.2319 15.52373230231022
HAWK-5B                 
1 52756U 22057AA  26198.41342900  .00010426  00000+0  17271-3 0  9993
2 52756  97.6636 358.4118 0003281 321.9348  38.1672 15.52371017231036
